[{"OBJECT_NAME":"STARLINK-5966","OBJECT_ID":"2023-083AV","EPOCH":"2026-03-09T22:00:01.999584","MEAN_MOTION":15.0938576,"ECCENTRICITY":0.00014041,"INCLINATION":43,"RA_OF_ASC_NODE":67.3895,"ARG_OF_PERICENTER":278.8918,"MEAN_ANOMALY":174.089,"EPHEMERIS_TYPE":0,"CLASSIFICATION_TYPE":"U","NORAD_CAT_ID":56919,"ELEMENT_SET_NO":999,"REV_AT_EPOCH":557,"BSTAR":0.0038722234,"MEAN_MOTION_DOT":0.00063281,"MEAN_MOTION_DDOT":0},{"OBJECT_NAME":"LEMUR-2-TILLINFINITY","OBJECT_ID":"2025-061F","EPOCH":"2026-03-09T21:40:30.357696","MEAN_MOTION":15.139452,"ECCENTRICITY":0.00168906,"INCLINATION":97.5532,"RA_OF_ASC_NODE":45.5587,"ARG_OF_PERICENTER":226.702,"MEAN_ANOMALY":133.2804,"EPHEMERIS_TYPE":0,"CLASSIFICATION_TYPE":"U","NORAD_CAT_ID":63356,"ELEMENT_SET_NO":999,"REV_AT_EPOCH":5261,"BSTAR":0.00030453504,"MEAN_MOTION_DOT":5.472e-5,"MEAN_MOTION_DDOT":0}]
